{
  "type": "FeatureCollection",
  "features": [
    {
      "type": "Feature",
      "properties": {
        "id": "NA-CTR-SFO",
        "name": "旧金山终端管制区",
        "level": "danger",
        "shapeType": "polygon",
        "minAltitude": 0,
        "maxAltitude": 1500
      },
      "geometry": {
        "type": "Polygon",
        "coordinates": [
          [
            [
              -123.2,
              37.2
            ],
            [
              -121.8,
              37
            ],
            [
              -121.2,
              37.6
            ],
            [
              -121.5,
              38.2
            ],
            [
              -122.4,
              38.5
            ],
            [
              -123.5,
              38
            ],
            [
              -123.8,
              37.5
            ],
            [
              -123.2,
              37.2
            ]
          ]
        ]
      }
    },
    {
      "type": "Feature",
      "properties": {
        "id": "NA-CTR-LAX",
        "name": "洛杉矶进近限制区",
        "level": "warning",
        "shapeType": "polygon",
        "minAltitude": 0,
        "maxAltitude": 3000
      },
      "geometry": {
        "type": "Polygon",
        "coordinates": [
          [
            [
              -118.8,
              33.4
            ],
            [
              -117.2,
              33.4
            ],
            [
              -117.2,
              34.8
            ],
            [
              -118.8,
              34.8
            ],
            [
              -118.8,
              33.4
            ]
          ]
        ]
      }
    },
    {
      "type": "Feature",
      "properties": {
        "id": "NA-CTR-JFK",
        "name": "纽约肯尼迪警戒区",
        "level": "danger",
        "shapeType": "polygon",
        "minAltitude": 0,
        "maxAltitude": 2000
      },
      "geometry": {
        "type": "Polygon",
        "coordinates": [
          [
            [
              -74.4,
              40.4
            ],
            [
              -73.5,
              40.2
            ],
            [
              -73.2,
              40.9
            ],
            [
              -73.8,
              41.3
            ],
            [
              -74.8,
              41.1
            ],
            [
              -75,
              40.6
            ],
            [
              -74.4,
              40.4
            ]
          ]
        ]
      }
    },
    {
      "type": "Feature",
      "properties": {
        "id": "NA-TMA-ORD",
        "name": "芝加哥终端区",
        "level": "warning",
        "shapeType": "polygon",
        "minAltitude": 0,
        "maxAltitude": 3500
      },
      "geometry": {
        "type": "Polygon",
        "coordinates": [
          [
            [
              -85.747664,
              41.98
            ],
            [
              -85.801628,
              42.336033
            ],
            [
              -85.960812,
              42.674214
            ],
            [
              -86.217236,
              42.977584
            ],
            [
              -86.55804,
              43.23093
            ],
            [
              -86.966136,
              43.42155
            ],
            [
              -87.42106,
              43.539885
            ],
            [
              -87.9,
              43.58
            ],
            [
              -88.37894,
              43.539885
            ],
            [
              -88.833864,
              43.42155
            ],
            [
              -89.24196,
              43.23093
            ],
            [
              -89.582764,
              42.977584
            ],
            [
              -89.839188,
              42.674214
            ],
            [
              -89.998372,
              42.336033
            ],
            [
              -90.052336,
              41.98
            ],
            [
              -89.998372,
              41.623967
            ],
            [
              -89.839188,
              41.285786
            ],
            [
              -89.582764,
              40.982416
            ],
            [
              -89.24196,
              40.72907
            ],
            [
              -88.833864,
              40.53845
            ],
            [
              -88.37894,
              40.420115
            ],
            [
              -87.9,
              40.38
            ],
            [
              -87.42106,
              40.420115
            ],
            [
              -86.966136,
              40.53845
            ],
            [
              -86.55804,
              40.72907
            ],
            [
              -86.217236,
              40.982416
            ],
            [
              -85.960812,
              41.285786
            ],
            [
              -85.801628,
              41.623967
            ],
            [
              -85.747664,
              41.98
            ]
          ]
        ]
      }
    },
    {
      "type": "Feature",
      "properties": {
        "id": "NA-COR-TX",
        "name": "德州北部航路走廊",
        "level": "info",
        "shapeType": "polygon",
        "minAltitude": 0,
        "maxAltitude": 4500
      },
      "geometry": {
        "type": "Polygon",
        "coordinates": [
          [
            [
              -103.5,
              31.5
            ],
            [
              -96,
              31.5
            ],
            [
              -95.5,
              33.8
            ],
            [
              -96.5,
              35.5
            ],
            [
              -102,
              35.8
            ],
            [
              -104,
              34
            ],
            [
              -103.5,
              31.5
            ]
          ]
        ]
      }
    },
    {
      "type": "Feature",
      "properties": {
        "id": "NA-ZONE-GULF",
        "name": "墨西哥湾沿岸限飞带",
        "level": "warning",
        "shapeType": "polygon",
        "minAltitude": 0,
        "maxAltitude": 2500
      },
      "geometry": {
        "type": "Polygon",
        "coordinates": [
          [
            [
              -97.5,
              25.5
            ],
            [
              -93,
              26
            ],
            [
              -88.5,
              28.5
            ],
            [
              -90,
              30.5
            ],
            [
              -94,
              31
            ],
            [
              -98,
              29
            ],
            [
              -97.5,
              25.5
            ]
          ]
        ]
      }
    },
    {
      "type": "Feature",
      "properties": {
        "id": "NA-CTR-DEN",
        "name": "丹佛高原进近区",
        "level": "normal",
        "shapeType": "polygon",
        "minAltitude": 0,
        "maxAltitude": 3200
      },
      "geometry": {
        "type": "Polygon",
        "coordinates": [
          [
            [
              -105.4,
              39.2
            ],
            [
              -104.2,
              39.2
            ],
            [
              -104.2,
              40.2
            ],
            [
              -105.4,
              40.2
            ],
            [
              -105.4,
              39.2
            ]
          ]
        ]
      }
    },
    {
      "type": "Feature",
      "properties": {
        "id": "NA-CTR-ATL",
        "name": "亚特兰大终端警戒区",
        "level": "danger",
        "shapeType": "polygon",
        "minAltitude": 0,
        "maxAltitude": 1800
      },
      "geometry": {
        "type": "Polygon",
        "coordinates": [
          [
            [
              -84.8,
              33.2
            ],
            [
              -84,
              33
            ],
            [
              -83.8,
              33.9
            ],
            [
              -84.5,
              34.3
            ],
            [
              -85.2,
              33.8
            ],
            [
              -84.8,
              33.2
            ]
          ]
        ]
      }
    },
    {
      "type": "Feature",
      "properties": {
        "id": "NA-TMA-GREATLAKES",
        "name": "五大湖高空过渡区",
        "level": "info",
        "shapeType": "polygon",
        "minAltitude": 3000,
        "maxAltitude": 9000
      },
      "geometry": {
        "type": "Polygon",
        "coordinates": [
          [
            [
              -92,
              41
            ],
            [
              -82,
              41.5
            ],
            [
              -78.5,
              43.5
            ],
            [
              -80,
              46
            ],
            [
              -87,
              47
            ],
            [
              -93.5,
              45
            ],
            [
              -92,
              41
            ]
          ]
        ]
      }
    },
    {
      "type": "Feature",
      "properties": {
        "id": "NA-CTR-SEA",
        "name": "西雅图-普吉特湾管制区",
        "level": "warning",
        "shapeType": "polygon",
        "minAltitude": 0,
        "maxAltitude": 2800
      },
      "geometry": {
        "type": "Polygon",
        "coordinates": [
          [
            [
              -123.2,
              46.8
            ],
            [
              -121.8,
              46.5
            ],
            [
              -121.5,
              47.8
            ],
            [
              -122.5,
              48.4
            ],
            [
              -123.6,
              47.9
            ],
            [
              -123.2,
              46.8
            ]
          ]
        ]
      }
    },
    {
      "type": "Feature",
      "properties": {
        "id": "NA-ZONE-MIA",
        "name": "迈阿密进近扇区",
        "level": "warning",
        "shapeType": "circle",
        "radius": 95000,
        "minAltitude": 0,
        "maxAltitude": 2200
      },
      "geometry": {
        "type": "Polygon",
        "coordinates": [
          [
            [
              -79.068314,
              25.79
            ],
            [
              -79.091788,
              26.004599
            ],
            [
              -79.161309,
              26.210952
            ],
            [
              -79.274205,
              26.401127
            ],
            [
              -79.426137,
              26.567817
            ],
            [
              -79.611267,
              26.704617
            ],
            [
              -79.822481,
              26.806267
            ],
            [
              -80.051661,
              26.868864
            ],
            [
              -80.29,
              26.89
            ],
            [
              -80.528339,
              26.868864
            ],
            [
              -80.757519,
              26.806267
            ],
            [
              -80.968733,
              26.704617
            ],
            [
              -81.153863,
              26.567817
            ],
            [
              -81.305795,
              26.401127
            ],
            [
              -81.418691,
              26.210952
            ],
            [
              -81.488212,
              26.004599
            ],
            [
              -81.511686,
              25.79
            ],
            [
              -81.488212,
              25.575401
            ],
            [
              -81.418691,
              25.369048
            ],
            [
              -81.305795,
              25.178873
            ],
            [
              -81.153863,
              25.012183
            ],
            [
              -80.968733,
              24.875383
            ],
            [
              -80.757519,
              24.773733
            ],
            [
              -80.528339,
              24.711136
            ],
            [
              -80.29,
              24.69
            ],
            [
              -80.051661,
              24.711136
            ],
            [
              -79.822481,
              24.773733
            ],
            [
              -79.611267,
              24.875383
            ],
            [
              -79.426137,
              25.012183
            ],
            [
              -79.274205,
              25.178873
            ],
            [
              -79.161309,
              25.369048
            ],
            [
              -79.091788,
              25.575401
            ],
            [
              -79.068314,
              25.79
            ]
          ]
        ]
      }
    },
    {
      "type": "Feature",
      "properties": {
        "id": "NA-ZONE-PHX",
        "name": "凤凰城沙漠终端区",
        "level": "normal",
        "shapeType": "polygon",
        "minAltitude": 0,
        "maxAltitude": 3000
      },
      "geometry": {
        "type": "Polygon",
        "coordinates": [
          [
            [
              -112.6,
              33
            ],
            [
              -111.4,
              32.8
            ],
            [
              -111.2,
              33.8
            ],
            [
              -112,
              34.2
            ],
            [
              -112.9,
              33.7
            ],
            [
              -112.6,
              33
            ]
          ]
        ]
      }
    }
  ]
}